BEESAT-4                
1 41619U 16040W   22230.89040391  .00017995  00000+0  57340-3 0  9997
2 41619  97.2119 279.8972 0007618 246.6027 113.4415 15.32569189330289
CAS-2T & KS-1Q          
1 41847U 16066G   22230.86910123  .00000644  00000+0  10599-3 0  9992
2 41847  98.5467 295.4579 0363858  23.3540 338.3716 14.38695198303322
NAYIF-1 (EO-88)         
1 42017U 17008BX  22230.60472700  .00017836  00000+0  50509-3 0  9991
2 42017  97.2640 295.8750 0005256  41.4206 318.7436 15.36321571306617
ZHUHAI-1 02 (CAS-4B)    
1 42759U 17034B   22230.81113330  .00002999  00000+0  18296-3 0  9998
2 42759  43.0185 348.8874 0010465 318.3282 176.1737 15.12272179285795
ZHUHAI-1 01 (CAS-4A)    
1 42761U 17034D   22230.84512707  .00003109  00000+0  18870-3 0  9997
2 42761  43.0187 347.4397 0010864 321.1110 183.2892 15.12359270285801
MAX VALIER SAT          
1 42778U 17036P   22230.82188377  .00009782  00000+0  36158-3 0  9999
2 42778  97.2009 269.7990 0012605 103.9068 256.3575 15.27835919286425
RADFXSAT (FOX-1B)       
1 43017U 17073E   22230.64055667  .00005056  00000+0  38009-3 0  9999
2 43017  97.6662 122.2795 0246963 344.5396  14.8366 14.81820226256325
FOX-1D (AO-92)          
1 43137U 18004AC  22230.42793837  .00012486  00000+0  42689-3 0  9995
2 43137  97.3647 305.0580 0008743 134.9183 225.2768 15.30373893255813
DIWATA-2B               
1 43678U 18084H   22230.87833766  .00001052  00000+0  10877-3 0  9999
2 43678  97.9794   4.9064 0011305  80.7168 279.5338 14.92261286207162
ES'HAIL 2               
1 43700U 18090A   22230.86131262  .00000137  00000+0  00000+0 0  9999
2 43700   0.0125 108.9879 0002049  83.3768 110.6545  1.00273027 13655
FOX-1CLIFF (AO-95)      
1 43770U 18099N   22230.16975214  .00002074  00000+0  18628-3 0  9992
2 43770  97.6165 294.9140 0015291  70.9411 289.3465 14.96681062202246
ITASAT 1                
1 43786U 18099AE  22230.82620559  .00001463  00000+0  13251-3 0  9999
2 43786  97.6196 296.5050 0016108  61.9227 298.3621 14.96799266202383
JY1SAT (JO-97)          
1 43803U 18099AX  22230.42127557  .00002358  00000+0  20748-3 0  9998
2 43803  97.6158 295.8848 0016081  62.4133 297.8720 14.97351164202342
UWE-4                   
1 43880U 18111E   22230.50973085  .00002056  00000+0  17676-3 0  9993
2 43880  97.6627 135.7342 0013324 107.3364 252.9317 14.98435359198990
NEXUS (FO-99)           
1 43937U 19003F   22230.05104007  .00013053  00000+0  42313-3 0  9992
2 43937  97.1270 261.0446 0017927 295.0677  64.8704 15.31956323199409
PSAT2 (NO-104)          
1 44354U 19036R   22230.36581954  .00062822 -55978-5  50305-3 0  9995
2 44354  28.5249 107.1387 0210410 312.0587  46.2286 15.45517851174241
JAISAT-1                
1 44419U 19038F   22230.67432505  .00008860  00000+0  43572-3 0  9999
2 44419  97.6403 201.3491 0016912 276.7117  83.2191 15.18140475172496
DUCHIFAT-3              
1 44854U 19089C   22230.77779573  .00002664  00000+0  20855-3 0  9993
2 44854  36.9657  90.7664 0008603 357.5947  93.2028 15.01408456147305
CAS-6 (TIANQIN 1)       
1 44881U 19093C   22230.77234690  .00000394  00000+0  56570-4 0  9996
2 44881  97.8912 309.0836 0014721 349.1748  10.9142 14.81786814144007
RS-44 & BREEZE-KM R/B   
1 44909U 19096E   22230.34596836  .00000008  00000+0 -16904-4 0  9996
2 44909  82.5229 189.1587 0217386 174.7230 185.6237 12.79714273123423
ORBITAL FACTORY 2 (OF-2)
1 45113U 19071C   22230.39165102  .00029504  00000+0  55666-3 0  9998
2 45113  51.6369 113.9855 0009100  47.7085 312.4673 15.48179149142966
HUSKYSAT-1 (HO-107)     
1 45119U 19071J   22230.37643364  .00031535  00000+0  62114-3 0  9996
2 45119  51.6369 114.6042 0009009  43.6395 316.5304 15.46902181142947
BY70-2                  
1 45857U 20042B   22230.75571974  .00004789  00000+0  63286-3 0  9996
2 45857  97.9535 307.0244 0008733 273.2219  86.7983 14.80439402114671
SALSAT                  
1 46495U 20068K   22230.47703800  .00001560  00000+0  11486-3 0  9996
2 46495  97.7308 171.8131 0018064  69.3851 290.9310 15.04722748103511
BY70-3                  
1 46839U 20079N   22230.88108006  .00019760  00000+0  42986-3 0  9992
2 46839  97.1940 302.2435 0006995 106.5160 312.4172 15.44321204 99878
RADFXSAT-2 (AO-109)     
1 47311U 21002C   22230.26784680  .00011039  00000+0  43020-3 0  9996
2 47311  60.6846 129.4075 0027613  22.4806 337.7485 15.26118842 87894
UVSQ-SAT                
1 47438U 21006AB  22230.12717054  .00006358  00000+0  33105-3 0  9997
2 47438  97.4324 287.8799 0013134  65.5125 294.7476 15.16285561 86624
DIY-1 (ARDUIQUBE)       
1 47963U 21022AH  22230.26312186  .00020413  00000+0  10898-2 0  9991
2 47963  97.5247 130.9551 0014091 281.2447  78.7201 15.15072849 76305
XW-3 (CAS-9)            
1 50466U 21131B   22230.91203127  .00000102  00000+0  48124-4 0  9998
2 50466  98.5783 308.1306 0003694 336.5977  23.5041 14.38516000 33892
TEVEL-3                 
1 50988U 22002E   22230.86153832  .00005437  00000+0  29374-3 0  9997
2 50988  97.4768 296.8167 0009002 198.8645 271.3525 15.15085619 32869
TEVEL-8                 
1 50989U 22002F   22230.87099630  .00005310  00000+0  28739-3 0  9998
2 50989  97.4790 296.8511 0009272 197.3020 284.9082 15.15031720 32860
TEVEL-5                 
1 50998U 22002Q   22230.86280280  .00005575  00000+0  29685-3 0  9994
2 50998  97.4766 296.9464 0010655 195.0570 276.8867 15.15575846 32877
TEVEL-6                 
1 50999U 22002R   22230.86196356  .00005566  00000+0  29634-3 0  9999
2 50999  97.4762 296.9438 0010700 194.8036 275.4119 15.15580177 32878
TEVEL-1                 
1 51013U 22002AF  22230.86474387  .00005331  00000+0  28830-3 0  9997
2 51013  97.4772 296.7984 0008963 198.1025 272.0188 15.15059007 32865
TEVEL-7                 
1 51062U 22002CG  22230.92637360  .00005261  00000+0  28484-3 0  9997
2 51062  97.4783 296.8915 0009078 196.6339 218.2352 15.15023472 32878
TEVEL-4                 
1 51063U 22002CH  22230.87312058  .00005235  00000+0  28352-3 0  9991
2 51063  97.4784 296.8359 0009064 196.8987 283.2794 15.15013506 32866
TEVEL-2                 
1 51069U 22002CP  22230.86295843  .00005381  00000+0  29083-3 0  9992
2 51069  97.4763 296.8036 0008970 198.8529 271.9525 15.15077487 32864
RS3S                    
1 53308U 98067TT  22230.90067692  .00052942  00000+0  86708-3 0  9990
2 53308  51.6424  25.7304 0002258 126.6767 233.4430 15.51953311  4452
RS1S                    
1 53309U 98067TU  22230.90003822  .00053124  00000+0  86836-3 0  9991
2 53309  51.6422  25.7251 0002818 145.2735 214.8439 15.52005272  4408
RS5S                    
1 53310U 98067TV  22230.90018367  .00050853  00000+0  83342-3 0  9998
2 53310  51.6426  25.7271 0002555 146.5770 213.5381 15.51951927  4438
RS6S                    
1 53311U 98067TW  22230.89865634  .00057178  00000+0  92920-3 0  9993
2 53311  51.6420  25.7158 0001987 117.4799 242.6393 15.52137982  4459
RS9S                    
1 53312U 98067TX  22230.89908374  .00054189  00000+0  88369-3 0  9994
2 53312  51.6424  25.7188 0003010 148.4390 211.6781 15.52062193  4398
RS12S                   
1 53313U 98067TY  22230.89828617  .00052527  00000+0  85552-3 0  9991
2 53313  51.6424  25.7141 0002530 154.4712 205.6403 15.52111406  4441
RS4S                    
1 53321U 98067TZ  22230.90112344  .00053673  00000+0  87912-3 0  9990
2 53321  51.6428  25.7345 0002348 135.3286 224.7893 15.51945306  4449
RS29S (SXC3-2110 CYCLO*)
1 53373U 22096D   22230.88749947  .00010159  00000+0  41560-3 0  9999
2 53373  97.4350 132.2836 0003131 118.9874 241.1677 15.24524419  1468
RS32S (SXC3-212 MONITO*)
1 53374U 22096E   22230.88684638  .00010797  00000+0  44006-3 0  9991
2 53374  97.4350 132.2845 0003369 114.5660 245.5929 15.24631115  1467
RS34S (SXC3-218 KUZBAS*)
1 53375U 22096F   22230.88669267  .00008731  00000+0  35637-3 0  9998
2 53375  97.4349 132.2847 0003372 113.9305 246.2286 15.24644590  1466
RS23S (SXC3-21 UTMN)    
1 53376U 22096G   22230.88648574  .00009613  00000+0  39162-3 0  9994
2 53376  97.4350 132.2849 0003366 112.3202 247.8392 15.24681963  1463
RS28S (SXC3-214 MIET-A*)
1 53377U 22096H   22230.88629060  .00009098  00000+0  37048-3 0  9992
2 53377  97.4351 132.2852 0003413 112.2708 247.8891 15.24709135  1468
RS26S (KAI-1)           
1 53378U 22096J   22230.88603238  .00008290  00000+0  33754-3 0  9995
2 53378  97.4350 132.2856 0003433 107.1297 253.0317 15.24744997  1467
RS19S (SXC3-219 ISOI)   
1 53381U 22096M   22230.88352573  .00008695  00000+0  34951-3 0  9991
2 53381  97.4350 132.2889 0005901  69.3644 290.8226 15.25150036  1468
RS21S (CUBESX-HSE-2)    
1 53383U 22096P   22230.88313463  .00009283  00000+0  37222-3 0  9996
2 53383  97.4350 132.2894 0006058  68.4372 291.7511 15.25212222  1461
RS30S (SXC3-217 SIREN)  
1 53384U 22096Q   22230.88298621  .00009055  00000+0  36297-3 0  9993
2 53384  97.4348 132.2896 0006136  67.6027 292.5860 15.25231740  1468
RS20S (GEOSCAN-EDELVEIS)
1 53385U 22096R   22230.88208955  .00010322  00000+0  41133-3 0  9999
2 53385  97.4349 132.2908 0006628  67.9058 292.2883 15.25387413  1491
RS33S (SXC3-215 VIZARD) 
1 53386U 22096S   22230.88079824  .00013064  00000+0  51614-3 0  9992
2 53386  97.4349 132.2924 0007377  67.3675 292.8343 15.25608931  1488
